NORAD_CAT_ID,OBJECT_NAME,OBJECT_TYPE,EPOCH,MEAN_MOTION,ECCENTRICITY,INCLINATION,RA_OF_ASC_NODE,ARG_OF_PERICENTER,MEAN_ANOMALY,BSTAR,MEAN_MOTION_DOT,MEAN_MOTION_DDOT,TLE_LINE0,TLE_LINE1,TLE_LINE2,SEMIMAJOR_AXIS,PERIOD,APOGEE,PERIGEE,DECAYED
53261.0,STARLINK-4062,PAYLOAD,2022-08-18 22:00:00,15.73206088,0.0003086,53.2188,277.7198,12.9085,157.1975,0.00038496,0.00053775,0.0,0 STARLINK-4062,1 53261U 22086V   22230.91667824  .00053775  00000-0  38496-3 0  9997,2 53261  53.2188 277.7198 0003086  12.9085 157.1975 15.73206088  1308,6727.878000000002,91.533,351.819,347.667,0.0
53261.0,STARLINK-4062,PAYLOAD,2022-08-19 14:00:01,15.73135222,0.0003383,53.2189,274.4229,8.583,339.4465,0.00068534,0.00096424,0.0,0 STARLINK-4062,1 53261U 22086V   22231.58334491  .00096424  00000-0  68534-3 0  9996,2 53261  53.2189 274.4229 0003383   8.5830 339.4465 15.73135222  1307,6728.08,91.537,352.221,347.6690000000001,0.0
53261.0,STARLINK-4062,PAYLOAD,2022-08-19 22:00:00,15.7319057,0.0003173,53.2189,272.7716,10.0997,66.8085,-0.00014175,-0.00020466,0.0,0 STARLINK-4062,1 53261U 22086V   22231.91667824 -.00020466  00000-0 -14175-3 0  9999,2 53261  53.2189 272.7716 0003173  10.0997  66.8085 15.73190570  4789,6727.922,91.534,351.922,347.652,0.0
53261.0,STARLINK-4062,PAYLOAD,2022-08-20 14:00:01,15.7316093,0.0003506999999999,53.2183,269.4751,13.7502,240.9683,0.00060223,0.00084631,0.0,0 STARLINK-4062,1 53261U 22086V   22232.58334491  .00084631  00000-0  60223-3 0  9991,2 53261  53.2183 269.4751 0003507  13.7502 240.9683 15.73160930  4885,6728.007,91.535,352.231,347.51199999999994,0.0
53261.0,STARLINK-4062,PAYLOAD,2022-08-20 22:00:00,15.73191044,0.0003265,53.2186,267.8236,15.171,328.4701,0.00045125,0.00063175,0.0,0 STARLINK-4062,1 53261U 22086V   22232.91667824  .00063175  00000-0  45125-3 0  9991,2 53261  53.2186 267.8236 0003265  15.1710 328.4701 15.73191044  1303,6727.920999999999,91.534,351.982,347.589,0.0
53261.0,STARLINK-4062,PAYLOAD,2022-08-21 06:00:00,15.73256033,0.0003315,53.2188,266.1751,13.8668,58.7165,-0.00064585,-0.00090543,0.0,0 STARLINK-4062,1 53261U 22086V   22233.25001157 -.00090543  00000-0 -64585-3 0  9992,2 53261  53.2188 266.1751 0003315  13.8668  58.7165 15.73256033  4997,6727.735,91.53,351.831,347.37,0.0
53261.0,STARLINK-4062,PAYLOAD,2022-08-21 14:00:01,15.73168357,0.0003526,53.2185,264.5269,9.844,151.6877,-2.5927e-05,-4.257e-05,0.0,0 STARLINK-4062,1 53261U 22086V   22233.58334491 -.00004257  00000-0 -25927-4 0  9993,2 53261  53.2185 264.5269 0003526   9.8440 151.6877 15.73168357  1303,6727.985,91.535,352.223,347.478,0.0
53261.0,STARLINK-4062,PAYLOAD,2022-08-21 22:00:00,15.7313774,0.0003305,53.2185,262.8756,9.9033,240.5263,0.00054172,0.00075907,0.0,0 STARLINK-4062,1 53261U 22086V   22233.91667824  .00075907  00000-0  54172-3 0  9990,2 53261  53.2185 262.8756 0003305   9.9033 240.5263 15.73137740  1308,6728.073,91.537,352.161,347.714,0.0
53261.0,STARLINK-4062,PAYLOAD,2022-08-22 12:00:00,15.73178607,0.0003593,53.218,259.9917,11.9198,304.0924,0.00053407,0.00074953,0.0,0 STARLINK-4062,1 53261U 22086V   22234.50001157  .00074953  00000-0  53407-3 0  9997,2 53261  53.2180 259.9917 0003593  11.9198 304.0924 15.73178607  1300,6727.956,91.534,352.23900000000015,347.404,0.0
53261.0,STARLINK-4062,PAYLOAD,2022-08-22 22:00:00,15.73221967,0.0003294,53.2178,257.9276,11.7519,145.4411,0.00020728,0.00028601,0.0,0 STARLINK-4062,1 53261U 22086V   22234.91667824  .00028601  00000-0  20728-3 0  9990,2 53261  53.2178 257.9276 0003294  11.7519 145.4411 15.73221967  1302,6727.833000000001,91.532,351.914,347.481,0.0
53261.0,STARLINK-4062,PAYLOAD,2022-08-23 06:00:00,15.73225265,0.0003444999999999,53.2181,256.2793,11.3623,234.8058,-0.00017931,-0.00025747,0.0,0 STARLINK-4062,1 53261U 22086V   22235.25001157 -.00025747  00000-0 -17931-3 0  9991,2 53261  53.2181 256.2793 0003445  11.3623 234.8058 15.73225265  5301,6727.823,91.532,352.006,347.37,0.0
53261.0,STARLINK-4062,PAYLOAD,2022-08-23 14:00:01,15.73232171,0.0003613,53.2177,254.6307,7.7962,327.2997,-0.00036806,-0.00052052,0.0,0 STARLINK-4062,1 53261U 22086V   22235.58334491 -.00052052  00000-0 -36806-3 0  9998,2 53261  53.2177 254.6307 0003613   7.7962 327.2997 15.73232171  1300,6727.803000000001,91.531,352.099,347.23800000000006,0.0
53261.0,STARLINK-4062,PAYLOAD,2022-08-23 22:00:01,15.73143273,0.000335,53.2177,252.9792,7.6209,56.4956,0.00050261,0.00070353,0.0,0 STARLINK-4062,1 53261U 22086V   22235.91668981  .00070353  00000-0  50261-3 0  9992,2 53261  53.2177 252.9792 0003350   7.6209  56.4956 15.73143273  1300,6728.057,91.536,352.176,347.668,0.0
53261.0,STARLINK-4062,PAYLOAD,2022-08-24 14:00:01,15.73218574,0.0003598999999999,53.2165,249.6802,8.4899,233.399,0.00020806,0.00028708,0.0,0 STARLINK-4062,1 53261U 22086V   22236.58334491  .00028708  00000-0  20806-3 0  9991,2 53261  53.2165 249.6802 0003599   8.4899 233.3990 15.73218574  1302,6727.842,91.532,352.129,347.286,0.0
53261.0,STARLINK-4062,PAYLOAD,2022-08-24 16:00:00,15.73235941,0.0003552,53.2169,249.2695,9.8717,344.2481,-4.3634e-05,-6.755e-05,0.0,0 STARLINK-4062,1 53261U 22086V   22236.66667824 -.00006755  00000-0 -43634-4 0  9994,2 53261  53.2169 249.2695 0003552   9.8717 344.2481 15.73235941  5527,6727.793000000002,91.531,352.047,347.26800000000014,0.0
53261.0,STARLINK-4062,PAYLOAD,2022-08-24 22:00:00,15.73233238,0.0003383,53.2169,248.031,12.0064,318.8434,-3.877e-05,-6.071e-05,0.0,0 STARLINK-4062,1 53261U 22086V   22236.91667824 -.00006071  00000-0 -38770-4 0  9998,2 53261  53.2169 248.0310 0003383  12.0064 318.8434 15.73233238  1305,6727.8,91.531,351.941,347.389,0.0
53261.0,STARLINK-4062,PAYLOAD,2022-08-25 14:00:01,15.73239898,0.0003708999999999,53.217,244.7338,14.8334,133.909,-0.00044156,-0.00062269,0.0,0 STARLINK-4062,1 53261U 22086V   22237.58334491 -.00062269  00000-0 -44156-3 0  9998,2 53261  53.2170 244.7338 0003709  14.8334 133.9090 15.73239898  1304,6727.781,91.531,352.142,347.151,0.0
53261.0,STARLINK-4062,PAYLOAD,2022-08-25 18:00:00,15.73243633,0.0003536,53.2172,243.9079,14.6792,358.5484,-0.0006697,-0.00093784,0.0,0 STARLINK-4062,1 53261U 22086V   22237.75001157 -.00093784  00000-0 -66970-3 0  9991,2 53261  53.2172 243.9079 0003536  14.6792 358.5484 15.73243633  5693,6727.771,91.531,352.015,347.25699999999995,0.0
53261.0,STARLINK-4062,PAYLOAD,2022-08-25 22:00:00,15.73167913,0.0003488999999999,53.217,243.0824,14.8878,222.8317,0.00024383,0.00033697,0.0,0 STARLINK-4062,1 53261U 22086V   22237.91667824  .00033697  00000-0  24383-3 0  9995,2 53261  53.2170 243.0824 0003489  14.8878 222.8317 15.73167913  1302,6727.986999999999,91.535,352.199,347.504,0.0
53261.0,STARLINK-4062,PAYLOAD,2022-08-26 06:00:00,15.7320191,0.0003659,53.2167,241.4347,15.2744,311.3554,-1.5837e-05,-2.847e-05,0.0,0 STARLINK-4062,1 53261U 22086V   22238.25001157 -.00002847  00000-0 -15837-4 0  9994,2 53261  53.2167 241.4347 0003659  15.2744 311.3554 15.73201910  5774,6727.89,91.533,352.216,347.293,0.0
53261.0,STARLINK-4062,PAYLOAD,2022-08-26 14:00:01,15.73222085,0.0003731999999999,53.2162,239.7852,15.0245,40.5999,7.565399999999999e-05,0.0001002,0.0,0 STARLINK-4062,1 53261U 22086V   22238.58335648  .00010020  00000-0  75654-4 0  9998,2 53261  53.2162 239.7852 0003732  15.0245  40.5999 15.73222085  1301,6727.831999999999,91.532,352.208,347.186,0.0
53261.0,STARLINK-4062,PAYLOAD,2022-08-26 20:00:01,15.73231113,0.000344,53.2165,238.5466,15.1305,17.1534,-0.00015238,-0.00021989,0.0,0 STARLINK-4062,1 53261U 22086V   22238.83334491 -.00021989  00000-0 -15238-3 0  9990,2 53261  53.2165 238.5466 0003440  15.1305  17.1534 15.73231113  5879,6727.806,91.531,351.986,347.357,0.0
53261.0,STARLINK-4062,PAYLOAD,2022-08-26 22:00:00,15.73227344,0.0003411,53.2164,238.1339,15.5895,128.9359,-0.000158,-0.00022771,0.0,0 STARLINK-4062,1 53261U 22086V   22238.91667824 -.00022771  00000-0 -15800-3 0  9993,2 53261  53.2164 238.1339 0003411  15.5895 128.9359 15.73227344  1300,6727.816999999999,91.532,351.977,347.38699999999994,0.0
53261.0,STARLINK-4062,PAYLOAD,2022-08-27 14:00:01,15.73241274,0.0003623999999999,53.2168,234.8365,12.0167,310.3916,-0.00054823,-0.00077031,0.0,0 STARLINK-4062,1 53261U 22086V   22239.58334491 -.00077031  00000-0 -54823-3 0  9995,2 53261  53.2168 234.8365 0003624  12.0167 310.3916 15.73241274  1300,6727.778,91.531,352.081,347.204,0.0
53261.0,STARLINK-4062,PAYLOAD,2022-08-27 22:00:00,15.73167431,0.0003427,53.217,233.1853,13.3879,37.9609,0.00049912,0.0006992999999999,0.0,0 STARLINK-4062,1 53261U 22086V   22239.91667824  .00069930  00000-0  49912-3 0  9991,2 53261  53.2170 233.1853 0003427  13.3879  37.9609 15.73167431  1305,6727.988,91.535,352.159,347.547,0.0
53261.0,STARLINK-4062,PAYLOAD,2022-08-28 06:00:00,15.73235833,0.0003634,53.2166,231.5378,13.1796,127.0948,-0.00025363,-0.00036135,0.0,0 STARLINK-4062,1 53261U 22086V   22240.25001157 -.00036135  00000-0 -25363-3 0  9998,2 53261  53.2166 231.5378 0003634  13.1796 127.0948 15.73235833  6090,6727.793000000002,91.531,352.103,347.213,0.0
53261.0,STARLINK-4062,PAYLOAD,2022-08-28 14:00:01,15.7321871,0.0003591,53.2163,229.8879,10.9272,218.3195,-0.00020231,-0.00028953,0.0,0 STARLINK-4062,1 53261U 22086V   22240.58334491 -.00028953  00000-0 -20231-3 0  9992,2 53261  53.2163 229.8879 0003591  10.9272 218.3195 15.73218710  1301,6727.842,91.532,352.12300000000016,347.291,0.0
53261.0,STARLINK-4062,PAYLOAD,2022-08-28 22:00:00,15.73219487,0.0003301,53.2167,228.2367,10.1656,308.0093,-0.00018429,-0.00026436,0.0,0 STARLINK-4062,1 53261U 22086V   22240.91667824 -.00026436  00000-0 -18429-3 0  9998,2 53261  53.2167 228.2367 0003301  10.1656 308.0093 15.73219487  1303,6727.84,91.532,351.925,347.4840000000001,0.0
53261.0,STARLINK-4062,PAYLOAD,2022-08-29 14:00:01,15.73174151,0.0003541,53.2171,224.9393,5.5711,130.438,-0.00031915,-0.00045142,0.0,0 STARLINK-4062,1 53261U 22086V   22241.58334491 -.00045142  00000-0 -31915-3 0  9993,2 53261  53.2171 224.9393 0003541   5.5711 130.4380 15.73174151  1300,6727.969,91.535,352.216,347.451,0.0
